{
  "type": "Feature",
  "properties": {
    "benchmarkRole": "secondary",
    "slug": "central-lutheran-minneapolis",
    "parcelNumber": "2702924410124",
    "parcelIdSystem": "Hennepin County PID",
    "address": "328 16TH ST E, Minneapolis, MN 55404 (church campus at 333 S 12th St)",
    "jurisdiction": "Minneapolis, MN",
    "ownerOfRecord": "CENTRAL LUTHERAN CHURCH",
    "recordedAreaSqFt": 118599,
    "recordedAreaField": "PARCEL_AREA (county sq ft)",
    "crs": "EPSG:4326 (requested outSR=4326)",
    "sourceRef": "S2",
    "retrievedAt": "2026-10-04T04:23:00Z",
    "equirectAreaSqFtCheck": 118548,
    "areaMethod": "recorded = source layer field; equirect = local projection cross-check"
  },
  "geometry": {
    "type": "Polygon",
    "coordinates": [
      [
        [
          -93.27033114932192,
          44.96892062230149
        ],
        [
          -93.27033248463835,
          44.96820007832236
        ],
        [
          -93.27033257149941,
          44.96815269800314
        ],
        [
          -93.27033300546621,
          44.96815167795193
        ],
        [
          -93.27041483670294,
          44.967959313580785
        ],
        [
          -93.27041755461993,
          44.96795292474226
        ],
        [
          -93.27041858255478,
          44.967799527685784
        ],
        [
          -93.27042352379277,
          44.967741673768515
        ],
        [
          -93.27043751120515,
          44.96768457079932
        ],
        [
          -93.27046037183842,
          44.96762892854051
        ],
        [
          -93.27049182107649,
          44.96757544081334
        ],
        [
          -93.27053146638715,
          44.967524772886684
        ],
        [
          -93.27057881617009,
          44.967477555155185
        ],
        [
          -93.27063327971965,
          44.967434375037996
        ],
        [
          -93.2706941798764,
          44.96739577064804
        ],
        [
          -93.27076075932531,
          44.96736222177579
        ],
        [
          -93.27083218691888,
          44.96733414627383
        ],
        [
          -93.27090757539963,
          44.967311893714225
        ],
        [
          -93.2709859864548,
          44.96729574177627
        ],
        [
          -93.27106644463373,
          44.967285889912354
        ],
        [
          -93.27114794749951,
          44.96728246112471
        ],
        [
          -93.27167765528156,
          44.967281182453085
        ],
        [
          -93.27169519365432,
          44.96728193020417
        ],
        [
          -93.27171245919497,
          44.96728424764683
        ],
        [
          -93.27172917148229,
          44.967288096739814
        ],
        [
          -93.2717493366524,
          44.96729515402174
        ],
        [
          -93.27176763049594,
          44.96730443114048
        ],
        [
          -93.27178357253335,
          44.967315684386456
        ],
        [
          -93.27179674417629,
          44.967328618591765
        ],
        [
          -93.27180679890608,
          44.96734289430711
        ],
        [
          -93.27181347245238,
          44.967358134979435
        ],
        [
          -93.2718165891973,
          44.96737394043916
        ],
        [
          -93.27181606729489,
          44.96738989679032
        ],
        [
          -93.2718119212372,
          44.96740558270566
        ],
        [
          -93.27180426067174,
          44.9674205874336
        ],
        [
          -93.2717932840871,
          44.96743451621439
        ],
        [
          -93.27163402556133,
          44.967602938670304
        ],
        [
          -93.27158278412017,
          44.96766317665354
        ],
        [
          -93.27153989910633,
          44.967726619253774
        ],
        [
          -93.27150576343325,
          44.967792684018434
        ],
        [
          -93.27144462576864,
          44.96793119966729
        ],
        [
          -93.27089532137305,
          44.967931395794885
        ],
        [
          -93.27089519795015,
          44.96815222272811
        ],
        [
          -93.27089517558233,
          44.96819407838055
        ],
        [
          -93.27089477185888,
          44.96892137884179
        ],
        [
          -93.27033114932192,
          44.96892062230149
        ]
      ]
    ]
  }
}