{
  "type": "Feature",
  "properties": {
    "benchmarkRole": "secondary",
    "slug": "central-nazarene-portland",
    "parcelNumber": "R992090030",
    "parcelIdSystem": "PortlandMaps R-number / state ID 1S2E09AC 100",
    "address": "9715 SE POWELL BLVD, Portland, OR 97266",
    "jurisdiction": "Portland, OR",
    "ownerOfRecord": "CENTRAL CHURCH OF THE NAZARENE",
    "recordedAreaSqFt": 477884,
    "recordedAreaField": "A_T_SQFT (county roll 2025-09-27)",
    "crs": "EPSG:4326 (requested outSR=4326)",
    "sourceRef": "S2",
    "retrievedAt": "2026-10-04T04:23:00Z",
    "equirectAreaSqFtCheck": 477923,
    "areaMethod": "recorded = source layer field; equirect = local projection cross-check"
  },
  "geometry": {
    "type": "Polygon",
    "coordinates": [
      [
        [
          -122.5629326012369,
          45.4978329776886
        ],
        [
          -122.5629339711677,
          45.4975991882077
        ],
        [
          -122.56293498985724,
          45.49759207488903
        ],
        [
          -122.56293774588853,
          45.49758519391571
        ],
        [
          -122.56294215122668,
          45.497578751817784
        ],
        [
          -122.56294807741263,
          45.497572943791354
        ],
        [
          -122.56295534388494,
          45.49756794425385
        ],
        [
          -122.56296373235307,
          45.49756390495467
        ],
        [
          -122.56297298769543,
          45.497560948678576
        ],
        [
          -122.562982830536,
          45.49755916231959
        ],
        [
          -122.56299296353241,
          45.49755860191791
        ],
        [
          -122.56317571948874,
          45.497558850005866
        ],
        [
          -122.56318667264702,
          45.49755872785089
        ],
        [
          -122.56319761322888,
          45.497558338718015
        ],
        [
          -122.56320852506461,
          45.49755767882929
        ],
        [
          -122.56321939917113,
          45.497556750703346
        ],
        [
          -122.56323022476863,
          45.49755555811814
        ],
        [
          -122.5632409785009,
          45.49755410044402
        ],
        [
          -122.56325165587637,
          45.497552380199615
        ],
        [
          -122.56326224162366,
          45.49755039612556
        ],
        [
          -122.56327272136977,
          45.4975481557778
        ],
        [
          -122.56328308613152,
          45.497545656008
        ],
        [
          -122.56329331614599,
          45.497542904372104
        ],
        [
          -122.56330340512493,
          45.49753990527771
        ],
        [
          -122.56331334408523,
          45.49753665683584
        ],
        [
          -122.56332311146731,
          45.49753317038034
        ],
        [
          -122.5633326973897,
          45.497529442133214
        ],
        [
          -122.56334209286929,
          45.49752548153939
        ],
        [
          -122.56335128802452,
          45.4975212948955
        ],
        [
          -122.5633602675841,
          45.49751688283111
        ],
        [
          -122.56336902256486,
          45.497512254161485
        ],
        [
          -122.563377542187,
          45.497507412034935
        ],
        [
          -122.56338582016237,
          45.49750236337771
        ],
        [
          -122.56339383852458,
          45.49749711637539
        ],
        [
          -122.56340159098548,
          45.497491673546605
        ],
        [
          -122.5634090676636,
          45.49748604370659
        ],
        [
          -122.5634162613724,
          45.49748023567065
        ],
        [
          -122.56342316402704,
          45.49747425384633
        ],
        [
          -122.56342976394942,
          45.497468105159975
        ],
        [
          -122.56343605395305,
          45.49746179905644
        ],
        [
          -122.56344202595305,
          45.497455340573076
        ],
        [
          -122.56344767725452,
          45.49744874041408
        ],
        [
          -122.56345299168773,
          45.49744200424645
        ],
        [
          -122.5634579746426,
          45.49743514403376
        ],
        [
          -122.56346260905114,
          45.49742816355399
        ],
        [
          -122.56346689311675,
          45.49742107414107
        ],
        [
          -122.56349656626722,
          45.497370069884774
        ],
        [
          -122.56352837561141,
          45.497315402176774
        ],
        [
          -122.56353091155546,
          45.4973134231317
        ],
        [
          -122.56361148684321,
          45.497250550162306
        ],
        [
          -122.56359630980648,
          45.49722127939642
        ],
        [
          -122.56363050777101,
          45.49716156978254
        ],
        [
          -122.56363052843227,
          45.49716153389136
        ],
        [
          -122.56381810744338,
          45.497164836506485
        ],
        [
          -122.56386190211012,
          45.49717717235462
        ],
        [
          -122.56388319757225,
          45.49718317058183
        ],
        [
          -122.56407010194857,
          45.49723581403431
        ],
        [
          -122.56426427549219,
          45.49729050511729
        ],
        [
          -122.56436280630581,
          45.49777994944106
        ],
        [
          -122.56439451593701,
          45.497937432177395
        ],
        [
          -122.56449014968385,
          45.49841248577581
        ],
        [
          -122.56451776748895,
          45.498549667969975
        ],
        [
          -122.56449943646724,
          45.50056826573251
        ],
        [
          -122.56390514970283,
          45.50057099518352
        ],
        [
          -122.563671137673,
          45.50057071184951
        ],
        [
          -122.56335911863884,
          45.50057037751535
        ],
        [
          -122.56282006029811,
          45.5005697655139
        ],
        [
          -122.56283130900209,
          45.49911613435209
        ],
        [
          -122.56283294932581,
          45.49895694730384
        ],
        [
          -122.5629304497718,
          45.498957149421216
        ],
        [
          -122.56293030154978,
          45.498830582240664
        ],
        [
          -122.5629292693855,
          45.49840901574557
        ],
        [
          -122.56293244223511,
          45.49786040574721
        ],
        [
          -122.5629326012369,
          45.4978329776886
        ]
      ]
    ]
  }
}